TECHNOSAT               
1 42829U 17042E   26117.24666147  .00004406  00000+0  31681-3 0  9997
2 42829  97.4232 276.8713 0016299 267.3212  92.6149 15.04642808479041
FLYING LAPTOP           
1 42831U 17042G   26117.31985337  .00002676  00000+0  21450-3 0  9993
2 42831  97.4461 274.8924 0018008 298.7085  61.2329 15.00817212478822
HAWK-A                  
1 43765U 18099H   26117.07910012  .00008494  00000+0  34716-3 0  9997
2 43765  97.3964 169.9952 0037071 105.3133 255.2206 15.23967752405312
HAWK-B                  
1 43794U 18099AN  26117.10611103  .00007501  00000+0  32449-3 0  9991
2 43794  97.4012 169.5416 0034019 121.7211 238.7349 15.22197121405260
HAWK-C                  
1 43799U 18099AT  26117.10359864  .00010269  00000+0  37651-3 0  9994
2 43799  97.3940 170.6854 0042915 106.1013 254.4957 15.27288271406111
SALSAT                  
1 46495U 20068K   26117.24379231  .00009696  00000+0  34616-3 0  9994
2 46495  97.8862 117.2385 0011569 117.3130 242.9288 15.29030388307571
HAWK-2C                 
1 47502U 21006CT  26117.08749480  .00007061  00000+0  21659-3 0  9993
2 47502  97.2332 162.4284 0007663  38.0087 322.1695 15.34036420291661
HAWK-2A                 
1 47505U 21006CW  26117.09044202  .00007096  00000+0  21756-3 0  9993
2 47505  97.2375 163.0789 0007354  42.2172 317.9637 15.34048815291666
HAWK-2B                 
1 47508U 21006CZ  26117.08751790  .00008082  00000+0  24737-3 0  9990
2 47508  97.2245 161.4918 0007832  39.0097 321.1709 15.34054660291664
HAWK-3B                 
1 48931U 21059BE  26117.25245327  .00052097  00000+0  51907-3 0  9996
2 48931  97.6704 309.3034 0006074 149.7136 210.4475 15.65512328269873
HAWK-3C                 
1 48948U 21059BX  26117.12428854  .00045793  00000+0  45715-3 0  9993
2 48948  97.6836 314.7583 0006481 149.6753 210.4882 15.65487356269854
HAWK-3A                 
1 48957U 21059CG  26117.06024226  .00041769  00000+0  41739-3 0  9992
2 48957  97.6778 311.9354 0006153 149.7465 210.4151 15.65483652269844
HAWK-5C                 
1 52754U 22057Y   26116.99290182  .00019569  00000+0  35652-3 0  9998
2 52754  97.6524 273.4628 0003729 242.1782 117.9090 15.49515796218412
HAWK-5B                 
1 52756U 22057AA  26116.92819522  .00020378  00000+0  37110-3 0  9999
2 52756  97.6529 271.7370 0003941 237.5691 122.5178 15.49517825218400
HAWK-5A                 
1 52757U 22057AB  26116.92794979  .00020908  00000+0  38075-3 0  9998
2 52757  97.6526 272.5706 0004143 240.6531 119.4306 15.49512700218408
HAWK-6B                 
1 55324U 23011A   26116.76333233  .00006136  00000+0  26770-3 0  9992
2 55324  40.4992 291.9028 0002653   0.6822 359.3990 15.22458593180005
HAWK-6C                 
1 55326U 23011C   26117.15628023  .00006313  00000+0  27510-3 0  9992
2 55326  40.4981 286.4569 0003227 350.6610   9.4138 15.22467282180074
