[{"OBJECT_NAME":"TECHNOSAT","OBJECT_ID":"2017-042E","EPOCH":"2026-04-27T05:55:11.551008","MEAN_MOTION":15.04642808,"ECCENTRICITY":0.00162993,"INCLINATION":97.4232,"RA_OF_ASC_NODE":276.8713,"ARG_OF_PERICENTER":267.3212,"MEAN_ANOMALY":92.6149,"EPHEMERIS_TYPE":0,"CLASSIFICATION_TYPE":"U","NORAD_CAT_ID":42829,"ELEMENT_SET_NO":999,"REV_AT_EPOCH":47904,"BSTAR":0.00031681033,"MEAN_MOTION_DOT":4.406e-5,"MEAN_MOTION_DDOT":0},{"OBJECT_NAME":"FLYING LAPTOP","OBJECT_ID":"2017-042G","EPOCH":"2026-04-27T07:40:35.331168","MEAN_MOTION":15.00817212,"ECCENTRICITY":0.00180084,"INCLINATION":97.4461,"RA_OF_ASC_NODE":274.8924,"ARG_OF_PERICENTER":298.7085,"MEAN_ANOMALY":61.2329,"EPHEMERIS_TYPE":0,"CLASSIFICATION_TYPE":"U","NORAD_CAT_ID":42831,"ELEMENT_SET_NO":999,"REV_AT_EPOCH":47882,"BSTAR":0.0002145015,"MEAN_MOTION_DOT":2.676e-5,"MEAN_MOTION_DDOT":0},{"OBJECT_NAME":"HAWK-A","OBJECT_ID":"2018-099H","EPOCH":"2026-04-27T01:53:54.250368","MEAN_MOTION":15.23967752,"ECCENTRICITY":0.00370716,"INCLINATION":97.3964,"RA_OF_ASC_NODE":169.9952,"ARG_OF_PERICENTER":105.3133,"MEAN_ANOMALY":255.2206,"EPHEMERIS_TYPE":0,"CLASSIFICATION_TYPE":"U","NORAD_CAT_ID":43765,"ELEMENT_SET_NO":999,"REV_AT_EPOCH":40531,"BSTAR":0.00034715691,"MEAN_MOTION_DOT":8.494e-5,"MEAN_MOTION_DDOT":0},{"OBJECT_NAME":"HAWK-B","OBJECT_ID":"2018-099AN","EPOCH":"2026-04-27T02:32:47.992992","MEAN_MOTION":15.22197121,"ECCENTRICITY":0.00340197,"INCLINATION":97.4012,"RA_OF_ASC_NODE":169.5416,"ARG_OF_PERICENTER":121.7211,"MEAN_ANOMALY":238.7349,"EPHEMERIS_TYPE":0,"CLASSIFICATION_TYPE":"U","NORAD_CAT_ID":43794,"ELEMENT_SET_NO":999,"REV_AT_EPOCH":40526,"BSTAR":0.00032449267,"MEAN_MOTION_DOT":7.501e-5,"MEAN_MOTION_DDOT":0},{"OBJECT_NAME":"HAWK-C","OBJECT_ID":"2018-099AT","EPOCH":"2026-04-27T02:29:10.922496","MEAN_MOTION":15.27288271,"ECCENTRICITY":0.0042915,"INCLINATION":97.394,"RA_OF_ASC_NODE":170.6854,"ARG_OF_PERICENTER":106.1013,"MEAN_ANOMALY":254.4957,"EPHEMERIS_TYPE":0,"CLASSIFICATION_TYPE":"U","NORAD_CAT_ID":43799,"ELEMENT_SET_NO":999,"REV_AT_EPOCH":40611,"BSTAR":0.00037651048,"MEAN_MOTION_DOT":0.00010269,"MEAN_MOTION_DDOT":0},{"OBJECT_NAME":"SALSAT","OBJECT_ID":"2020-068K","EPOCH":"2026-04-27T05:51:03.655584","MEAN_MOTION":15.29030388,"ECCENTRICITY":0.00115696,"INCLINATION":97.8862,"RA_OF_ASC_NODE":117.2385,"ARG_OF_PERICENTER":117.313,"MEAN_ANOMALY":242.9288,"EPHEMERIS_TYPE":0,"CLASSIFICATION_TYPE":"U","NORAD_CAT_ID":46495,"ELEMENT_SET_NO":999,"REV_AT_EPOCH":30757,"BSTAR":0.00034615871,"MEAN_MOTION_DOT":9.696e-5,"MEAN_MOTION_DDOT":0},{"OBJECT_NAME":"HAWK-2C","OBJECT_ID":"2021-006CT","EPOCH":"2026-04-27T02:05:59.550720","MEAN_MOTION":15.3403642,"ECCENTRICITY":0.00076634,"INCLINATION":97.2332,"RA_OF_ASC_NODE":162.4284,"ARG_OF_PERICENTER":38.0087,"MEAN_ANOMALY":322.1695,"EPHEMERIS_TYPE":0,"CLASSIFICATION_TYPE":"U","NORAD_CAT_ID":47502,"ELEMENT_SET_NO":999,"REV_AT_EPOCH":29166,"BSTAR":0.00021659158,"MEAN_MOTION_DOT":7.061e-5,"MEAN_MOTION_DDOT":0},{"OBJECT_NAME":"HAWK-2A","OBJECT_ID":"2021-006CW","EPOCH":"2026-04-27T02:10:14.190528","MEAN_MOTION":15.34048815,"ECCENTRICITY":0.0007354,"INCLINATION":97.2375,"RA_OF_ASC_NODE":163.0789,"ARG_OF_PERICENTER":42.2172,"MEAN_ANOMALY":317.9637,"EPHEMERIS_TYPE":0,"CLASSIFICATION_TYPE":"U","NORAD_CAT_ID":47505,"ELEMENT_SET_NO":999,"REV_AT_EPOCH":29166,"BSTAR":0.00021756429,"MEAN_MOTION_DOT":7.096e-5,"MEAN_MOTION_DDOT":0},{"OBJECT_NAME":"HAWK-2B","OBJECT_ID":"2021-006CZ","EPOCH":"2026-04-27T02:06:01.546560","MEAN_MOTION":15.3405466,"ECCENTRICITY":0.00078325,"INCLINATION":97.2245,"RA_OF_ASC_NODE":161.4918,"ARG_OF_PERICENTER":39.0097,"MEAN_ANOMALY":321.1709,"EPHEMERIS_TYPE":0,"CLASSIFICATION_TYPE":"U","NORAD_CAT_ID":47508,"ELEMENT_SET_NO":999,"REV_AT_EPOCH":29166,"BSTAR":0.00024736732,"MEAN_MOTION_DOT":8.082e-5,"MEAN_MOTION_DDOT":0},{"OBJECT_NAME":"HAWK-3B","OBJECT_ID":"2021-059BE","EPOCH":"2026-04-27T06:03:31.962528","MEAN_MOTION":15.65512328,"ECCENTRICITY":0.00060749,"INCLINATION":97.6704,"RA_OF_ASC_NODE":309.3034,"ARG_OF_PERICENTER":149.7136,"MEAN_ANOMALY":210.4475,"EPHEMERIS_TYPE":0,"CLASSIFICATION_TYPE":"U","NORAD_CAT_ID":48931,"ELEMENT_SET_NO":999,"REV_AT_EPOCH":26987,"BSTAR":0.00051906744,"MEAN_MOTION_DOT":0.00052097,"MEAN_MOTION_DDOT":0},{"OBJECT_NAME":"HAWK-3C","OBJECT_ID":"2021-059BX","EPOCH":"2026-04-27T02:58:58.529856","MEAN_MOTION":15.65487356,"ECCENTRICITY":0.00064814,"INCLINATION":97.6836,"RA_OF_ASC_NODE":314.7583,"ARG_OF_PERICENTER":149.6753,"MEAN_ANOMALY":210.4882,"EPHEMERIS_TYPE":0,"CLASSIFICATION_TYPE":"U","NORAD_CAT_ID":48948,"ELEMENT_SET_NO":999,"REV_AT_EPOCH":26985,"BSTAR":0.00045715122,"MEAN_MOTION_DOT":0.00045793,"MEAN_MOTION_DDOT":0},{"OBJECT_NAME":"HAWK-3A","OBJECT_ID":"2021-059CG","EPOCH":"2026-04-27T01:26:44.931264","MEAN_MOTION":15.65483652,"ECCENTRICITY":0.00061535,"INCLINATION":97.6778,"RA_OF_ASC_NODE":311.9354,"ARG_OF_PERICENTER":149.7465,"MEAN_ANOMALY":210.4151,"EPHEMERIS_TYPE":0,"CLASSIFICATION_TYPE":"U","NORAD_CAT_ID":48957,"ELEMENT_SET_NO":999,"REV_AT_EPOCH":26984,"BSTAR":0.00041739217,"MEAN_MOTION_DOT":0.00041769,"MEAN_MOTION_DDOT":0},{"OBJECT_NAME":"HAWK-5C","OBJECT_ID":"2022-057Y","EPOCH":"2026-04-26T23:49:46.717248","MEAN_MOTION":15.49515796,"ECCENTRICITY":0.00037296,"INCLINATION":97.6524,"RA_OF_ASC_NODE":273.4628,"ARG_OF_PERICENTER":242.1782,"MEAN_ANOMALY":117.909,"EPHEMERIS_TYPE":0,"CLASSIFICATION_TYPE":"U","NORAD_CAT_ID":52754,"ELEMENT_SET_NO":999,"REV_AT_EPOCH":21841,"BSTAR":0.00035652212,"MEAN_MOTION_DOT":0.00019569,"MEAN_MOTION_DDOT":0},{"OBJECT_NAME":"HAWK-5B","OBJECT_ID":"2022-057AA","EPOCH":"2026-04-26T22:16:36.067008","MEAN_MOTION":15.49517825,"ECCENTRICITY":0.0003941,"INCLINATION":97.6529,"RA_OF_ASC_NODE":271.737,"ARG_OF_PERICENTER":237.5691,"MEAN_ANOMALY":122.5178,"EPHEMERIS_TYPE":0,"CLASSIFICATION_TYPE":"U","NORAD_CAT_ID":52756,"ELEMENT_SET_NO":999,"REV_AT_EPOCH":21840,"BSTAR":0.0003711,"MEAN_MOTION_DOT":0.00020378,"MEAN_MOTION_DDOT":0},{"OBJECT_NAME":"HAWK-5A","OBJECT_ID":"2022-057AB","EPOCH":"2026-04-26T22:16:14.861856","MEAN_MOTION":15.495127,"ECCENTRICITY":0.0004143,"INCLINATION":97.6526,"RA_OF_ASC_NODE":272.5706,"ARG_OF_PERICENTER":240.6531,"MEAN_ANOMALY":119.4306,"EPHEMERIS_TYPE":0,"CLASSIFICATION_TYPE":"U","NORAD_CAT_ID":52757,"ELEMENT_SET_NO":999,"REV_AT_EPOCH":21840,"BSTAR":0.00038075,"MEAN_MOTION_DOT":0.00020908,"MEAN_MOTION_DDOT":0},{"OBJECT_NAME":"HAWK-6B","OBJECT_ID":"2023-011A","EPOCH":"2026-04-26T18:19:11.913312","MEAN_MOTION":15.22458593,"ECCENTRICITY":0.00026533,"INCLINATION":40.4992,"RA_OF_ASC_NODE":291.9028,"ARG_OF_PERICENTER":0.6822,"MEAN_ANOMALY":359.399,"EPHEMERIS_TYPE":0,"CLASSIFICATION_TYPE":"U","NORAD_CAT_ID":55324,"ELEMENT_SET_NO":999,"REV_AT_EPOCH":18000,"BSTAR":0.00026770472,"MEAN_MOTION_DOT":6.136e-5,"MEAN_MOTION_DDOT":0},{"OBJECT_NAME":"HAWK-6C","OBJECT_ID":"2023-011C","EPOCH":"2026-04-27T03:45:02.611872","MEAN_MOTION":15.22467282,"ECCENTRICITY":0.0003227,"INCLINATION":40.4981,"RA_OF_ASC_NODE":286.4569,"ARG_OF_PERICENTER":350.661,"MEAN_ANOMALY":9.4138,"EPHEMERIS_TYPE":0,"CLASSIFICATION_TYPE":"U","NORAD_CAT_ID":55326,"ELEMENT_SET_NO":999,"REV_AT_EPOCH":18007,"BSTAR":0.00027510225,"MEAN_MOTION_DOT":6.313e-5,"MEAN_MOTION_DDOT":0}]
